{
    "links": {
        "self": "http://www.neowsapp.com/rest/v1/neo/3720916?api_key=iIulBulltgU6a56xZRHN4H3l9WmuAYTsLGpBGhQ2"
    },
    "id": "3720916",
    "neo_reference_id": "3720916",
    "name": "(2015 LF)",
    "designation": "2015 LF",
    "nasa_jpl_url": "http://ssd.jpl.nasa.gov/sbdb.cgi?sstr=3720916",
    "absolute_magnitude_h": 26.6,
    "estimated_diameter": {
        "kilometers": {
            "estimated_diameter_min": 0.0127219879,
            "estimated_diameter_max": 0.0284472297
        },
        "meters": {
            "estimated_diameter_min": 12.7219878539,
            "estimated_diameter_max": 28.4472296503
        },
        "miles": {
            "estimated_diameter_min": 0.0079050743,
            "estimated_diameter_max": 0.0176762835
        },
        "feet": {
            "estimated_diameter_min": 41.7388066307,
            "estimated_diameter_max": 93.330808926
        }
    },
    "is_potentially_hazardous_asteroid": false,
    "close_approach_data": [
        {
            "close_approach_date": "2015-06-08",
            "close_approach_date_full": "2015-Jun-08 23:49",
            "epoch_date_close_approach": 1433807340000,
            "relative_velocity": {
                "kilometers_per_second": "16.759491225",
                "kilometers_per_hour": "60334.1684098873",
                "miles_per_hour": "37489.3059211325"
            },
            "miss_distance": {
                "astronomical": "0.0013152465",
                "lunar": "0.5116308885",
                "kilometers": "196758.074924955",
                "miles": "122259.798496179"
            },
            "orbiting_body": "Earth"
        },
        {
            "close_approach_date": "2015-06-09",
            "close_approach_date_full": "2015-Jun-09 00:27",
            "epoch_date_close_approach": 1433809620000,
            "relative_velocity": {
                "kilometers_per_second": "15.7359054257",
                "kilometers_per_hour": "56649.2595325661",
                "miles_per_hour": "35199.646846777"
            },
            "miss_distance": {
                "astronomical": "0.0036290375",
                "lunar": "1.4116955875",
                "kilometers": "542896.280150125",
                "miles": "337340.105816725"
            },
            "orbiting_body": "Moon"
        }
    ],
    "orbital_data": {
        "orbit_id": "8",
        "orbit_determination_date": "2017-04-14 06:13:06",
        "first_observation_date": "2015-06-07",
        "last_observation_date": "2015-06-08",
        "data_arc_in_days": 1,
        "observations_used": 57,
        "orbit_uncertainty": "7",
        "minimum_orbit_intersection": ".000977557",
        "jupiter_tisserand_invariant": "3.175",
        "epoch_osculation": "2459000.5",
        "eccentricity": ".6651035201206613",
        "semi_major_axis": "2.39482840561184",
        "inclination": "8.449078062984935",
        "ascending_node_longitude": "77.2828008296822",
        "orbital_period": "1353.661346871849",
        "perihelion_distance": ".8020196029544544",
        "perihelion_argument": "242.0409510582925",
        "aphelion_distance": "3.987637208269226",
        "perihelion_time": "2458575.995801946790",
        "mean_anomaly": "112.8949361317792",
        "mean_motion": ".2659453938253592",
        "equinox": "J2000",
        "orbit_class": {
            "orbit_class_type": "APO",
            "orbit_class_description": "Near-Earth asteroid orbits which cross the Earth’s orbit similar to that of 1862 Apollo",
            "orbit_class_range": "a (semi-major axis) > 1.0 AU; q (perihelion) < 1.017 AU"
        }
    },
    "is_sentry_object": false
}